;ringing_tower - M593 ZV comparison, Neptune 3 Pro
;zones bottom->top: OFF / F30 / F40 / F50, 6mm each, 100mm/s outer
;read outer walls at corners: least ghosting wins -> M593 F<val> D0.15 + M500
M104 S240
M140 S80
M190 S80
M109 S240
G28
M420 S1 ; enable saved 121pt UBL mesh (also auto-loaded at boot)
G90
M82
G1 X55.00 Y46.00 Z0.20 F9000
G92 E0
G1 X85.00 Y46.00 E0.998 F1800
G1 Z5 F600
G1 X100.00 Y101.00 F9000
G92 E0
;--- zone OFF ---
M593 F0 ; shaping OFF
G1 X100.00 Y101.00 F9000
G1 Z0.20 F600
G1 X130.00 Y101.00 E0.998 F6000
G1 X130.00 Y131.00 E1.996 F6000
G1 X100.00 Y131.00 E2.993 F6000
G1 X100.00 Y101.00 E3.991 F6000
G1 X100.40 Y101.40 F9000
G1 Z0.20 F600
G1 X129.60 Y101.40 E0.971 F6000
G1 X129.60 Y130.60 E1.942 F6000
G1 X100.40 Y130.60 E2.914 F6000
G1 X100.40 Y101.40 E3.885 F6000
G1 X100.00 Y101.00 F9000
G1 Z0.40 F600
G1 X130.00 Y101.00 E0.998 F6000
G1 X130.00 Y131.00 E1.996 F6000
G1 X100.00 Y131.00 E2.993 F6000
G1 X100.00 Y101.00 E3.991 F6000
G1 X100.40 Y101.40 F9000
G1 Z0.40 F600
G1 X129.60 Y101.40 E0.971 F6000
G1 X129.60 Y130.60 E1.942 F6000
G1 X100.40 Y130.60 E2.914 F6000
G1 X100.40 Y101.40 E3.885 F6000
G1 X100.00 Y101.00 F9000
G1 Z0.60 F600
G1 X130.00 Y101.00 E0.998 F6000
G1 X130.00 Y131.00 E1.996 F6000
G1 X100.00 Y131.00 E2.993 F6000
G1 X100.00 Y101.00 E3.991 F6000
G1 X100.40 Y101.40 F9000
G1 Z0.60 F600
G1 X129.60 Y101.40 E0.971 F6000
G1 X129.60 Y130.60 E1.942 F6000
G1 X100.40 Y130.60 E2.914 F6000
G1 X100.40 Y101.40 E3.885 F6000
G1 X100.00 Y101.00 F9000
G1 Z0.80 F600
G1 X130.00 Y101.00 E0.998 F6000
G1 X130.00 Y131.00 E1.996 F6000
G1 X100.00 Y131.00 E2.993 F6000
G1 X100.00 Y101.00 E3.991 F6000
G1 X100.40 Y101.40 F9000
G1 Z0.80 F600
G1 X129.60 Y101.40 E0.971 F6000
G1 X129.60 Y130.60 E1.942 F6000
G1 X100.40 Y130.60 E2.914 F6000
G1 X100.40 Y101.40 E3.885 F6000
G1 X100.00 Y101.00 F9000
G1 Z1.00 F600
G1 X130.00 Y101.00 E0.998 F6000
G1 X130.00 Y131.00 E1.996 F6000
G1 X100.00 Y131.00 E2.993 F6000
G1 X100.00 Y101.00 E3.991 F6000
G1 X100.40 Y101.40 F9000
G1 Z1.00 F600
G1 X129.60 Y101.40 E0.971 F6000
G1 X129.60 Y130.60 E1.942 F6000
G1 X100.40 Y130.60 E2.914 F6000
G1 X100.40 Y101.40 E3.885 F6000
G1 X100.00 Y101.00 F9000
G1 Z1.20 F600
G1 X130.00 Y101.00 E0.998 F6000
G1 X130.00 Y131.00 E1.996 F6000
G1 X100.00 Y131.00 E2.993 F6000
G1 X100.00 Y101.00 E3.991 F6000
G1 X100.40 Y101.40 F9000
G1 Z1.20 F600
G1 X129.60 Y101.40 E0.971 F6000
G1 X129.60 Y130.60 E1.942 F6000
G1 X100.40 Y130.60 E2.914 F6000
G1 X100.40 Y101.40 E3.885 F6000
G1 X100.00 Y101.00 F9000
G1 Z1.40 F600
G1 X130.00 Y101.00 E0.998 F6000
G1 X130.00 Y131.00 E1.996 F6000
G1 X100.00 Y131.00 E2.993 F6000
G1 X100.00 Y101.00 E3.991 F6000
G1 X100.40 Y101.40 F9000
G1 Z1.40 F600
G1 X129.60 Y101.40 E0.971 F6000
G1 X129.60 Y130.60 E1.942 F6000
G1 X100.40 Y130.60 E2.914 F6000
G1 X100.40 Y101.40 E3.885 F6000
G1 X100.00 Y101.00 F9000
G1 Z1.60 F600
G1 X130.00 Y101.00 E0.998 F6000
G1 X130.00 Y131.00 E1.996 F6000
G1 X100.00 Y131.00 E2.993 F6000
G1 X100.00 Y101.00 E3.991 F6000
G1 X100.40 Y101.40 F9000
G1 Z1.60 F600
G1 X129.60 Y101.40 E0.971 F6000
G1 X129.60 Y130.60 E1.942 F6000
G1 X100.40 Y130.60 E2.914 F6000
G1 X100.40 Y101.40 E3.885 F6000
G1 X100.00 Y101.00 F9000
G1 Z1.80 F600
G1 X130.00 Y101.00 E0.998 F6000
G1 X130.00 Y131.00 E1.996 F6000
G1 X100.00 Y131.00 E2.993 F6000
G1 X100.00 Y101.00 E3.991 F6000
G1 X100.40 Y101.40 F9000
G1 Z1.80 F600
G1 X129.60 Y101.40 E0.971 F6000
G1 X129.60 Y130.60 E1.942 F6000
G1 X100.40 Y130.60 E2.914 F6000
G1 X100.40 Y101.40 E3.885 F6000
G1 X100.00 Y101.00 F9000
G1 Z2.00 F600
G1 X130.00 Y101.00 E0.998 F6000
G1 X130.00 Y131.00 E1.996 F6000
G1 X100.00 Y131.00 E2.993 F6000
G1 X100.00 Y101.00 E3.991 F6000
G1 X100.40 Y101.40 F9000
G1 Z2.00 F600
G1 X129.60 Y101.40 E0.971 F6000
G1 X129.60 Y130.60 E1.942 F6000
G1 X100.40 Y130.60 E2.914 F6000
G1 X100.40 Y101.40 E3.885 F6000
G1 X100.00 Y101.00 F9000
G1 Z2.20 F600
G1 X130.00 Y101.00 E0.998 F6000
G1 X130.00 Y131.00 E1.996 F6000
G1 X100.00 Y131.00 E2.993 F6000
G1 X100.00 Y101.00 E3.991 F6000
G1 X100.40 Y101.40 F9000
G1 Z2.20 F600
G1 X129.60 Y101.40 E0.971 F6000
G1 X129.60 Y130.60 E1.942 F6000
G1 X100.40 Y130.60 E2.914 F6000
G1 X100.40 Y101.40 E3.885 F6000
G1 X100.00 Y101.00 F9000
G1 Z2.40 F600
G1 X130.00 Y101.00 E0.998 F6000
G1 X130.00 Y131.00 E1.996 F6000
G1 X100.00 Y131.00 E2.993 F6000
G1 X100.00 Y101.00 E3.991 F6000
G1 X100.40 Y101.40 F9000
G1 Z2.40 F600
G1 X129.60 Y101.40 E0.971 F6000
G1 X129.60 Y130.60 E1.942 F6000
G1 X100.40 Y130.60 E2.914 F6000
G1 X100.40 Y101.40 E3.885 F6000
G1 X100.00 Y101.00 F9000
G1 Z2.60 F600
G1 X130.00 Y101.00 E0.998 F6000
G1 X130.00 Y131.00 E1.996 F6000
G1 X100.00 Y131.00 E2.993 F6000
G1 X100.00 Y101.00 E3.991 F6000
G1 X100.40 Y101.40 F9000
G1 Z2.60 F600
G1 X129.60 Y101.40 E0.971 F6000
G1 X129.60 Y130.60 E1.942 F6000
G1 X100.40 Y130.60 E2.914 F6000
G1 X100.40 Y101.40 E3.885 F6000
G1 X100.00 Y101.00 F9000
G1 Z2.80 F600
G1 X130.00 Y101.00 E0.998 F6000
G1 X130.00 Y131.00 E1.996 F6000
G1 X100.00 Y131.00 E2.993 F6000
G1 X100.00 Y101.00 E3.991 F6000
G1 X100.40 Y101.40 F9000
G1 Z2.80 F600
G1 X129.60 Y101.40 E0.971 F6000
G1 X129.60 Y130.60 E1.942 F6000
G1 X100.40 Y130.60 E2.914 F6000
G1 X100.40 Y101.40 E3.885 F6000
G1 X100.00 Y101.00 F9000
G1 Z3.00 F600
G1 X130.00 Y101.00 E0.998 F6000
G1 X130.00 Y131.00 E1.996 F6000
G1 X100.00 Y131.00 E2.993 F6000
G1 X100.00 Y101.00 E3.991 F6000
G1 X100.40 Y101.40 F9000
G1 Z3.00 F600
G1 X129.60 Y101.40 E0.971 F6000
G1 X129.60 Y130.60 E1.942 F6000
G1 X100.40 Y130.60 E2.914 F6000
G1 X100.40 Y101.40 E3.885 F6000
G1 X100.00 Y101.00 F9000
G1 Z3.20 F600
G1 X130.00 Y101.00 E0.998 F6000
G1 X130.00 Y131.00 E1.996 F6000
G1 X100.00 Y131.00 E2.993 F6000
G1 X100.00 Y101.00 E3.991 F6000
G1 X100.40 Y101.40 F9000
G1 Z3.20 F600
G1 X129.60 Y101.40 E0.971 F6000
G1 X129.60 Y130.60 E1.942 F6000
G1 X100.40 Y130.60 E2.914 F6000
G1 X100.40 Y101.40 E3.885 F6000
G1 X100.00 Y101.00 F9000
G1 Z3.40 F600
G1 X130.00 Y101.00 E0.998 F6000
G1 X130.00 Y131.00 E1.996 F6000
G1 X100.00 Y131.00 E2.993 F6000
G1 X100.00 Y101.00 E3.991 F6000
G1 X100.40 Y101.40 F9000
G1 Z3.40 F600
G1 X129.60 Y101.40 E0.971 F6000
G1 X129.60 Y130.60 E1.942 F6000
G1 X100.40 Y130.60 E2.914 F6000
G1 X100.40 Y101.40 E3.885 F6000
G1 X100.00 Y101.00 F9000
G1 Z3.60 F600
G1 X130.00 Y101.00 E0.998 F6000
G1 X130.00 Y131.00 E1.996 F6000
G1 X100.00 Y131.00 E2.993 F6000
G1 X100.00 Y101.00 E3.991 F6000
G1 X100.40 Y101.40 F9000
G1 Z3.60 F600
G1 X129.60 Y101.40 E0.971 F6000
G1 X129.60 Y130.60 E1.942 F6000
G1 X100.40 Y130.60 E2.914 F6000
G1 X100.40 Y101.40 E3.885 F6000
G1 X100.00 Y101.00 F9000
G1 Z3.80 F600
G1 X130.00 Y101.00 E0.998 F6000
G1 X130.00 Y131.00 E1.996 F6000
G1 X100.00 Y131.00 E2.993 F6000
G1 X100.00 Y101.00 E3.991 F6000
G1 X100.40 Y101.40 F9000
G1 Z3.80 F600
G1 X129.60 Y101.40 E0.971 F6000
G1 X129.60 Y130.60 E1.942 F6000
G1 X100.40 Y130.60 E2.914 F6000
G1 X100.40 Y101.40 E3.885 F6000
G1 X100.00 Y101.00 F9000
G1 Z4.00 F600
G1 X130.00 Y101.00 E0.998 F6000
G1 X130.00 Y131.00 E1.996 F6000
G1 X100.00 Y131.00 E2.993 F6000
G1 X100.00 Y101.00 E3.991 F6000
G1 X100.40 Y101.40 F9000
G1 Z4.00 F600
G1 X129.60 Y101.40 E0.971 F6000
G1 X129.60 Y130.60 E1.942 F6000
G1 X100.40 Y130.60 E2.914 F6000
G1 X100.40 Y101.40 E3.885 F6000
G1 X100.00 Y101.00 F9000
G1 Z4.20 F600
G1 X130.00 Y101.00 E0.998 F6000
G1 X130.00 Y131.00 E1.996 F6000
G1 X100.00 Y131.00 E2.993 F6000
G1 X100.00 Y101.00 E3.991 F6000
G1 X100.40 Y101.40 F9000
G1 Z4.20 F600
G1 X129.60 Y101.40 E0.971 F6000
G1 X129.60 Y130.60 E1.942 F6000
G1 X100.40 Y130.60 E2.914 F6000
G1 X100.40 Y101.40 E3.885 F6000
G1 X100.00 Y101.00 F9000
G1 Z4.40 F600
G1 X130.00 Y101.00 E0.998 F6000
G1 X130.00 Y131.00 E1.996 F6000
G1 X100.00 Y131.00 E2.993 F6000
G1 X100.00 Y101.00 E3.991 F6000
G1 X100.40 Y101.40 F9000
G1 Z4.40 F600
G1 X129.60 Y101.40 E0.971 F6000
G1 X129.60 Y130.60 E1.942 F6000
G1 X100.40 Y130.60 E2.914 F6000
G1 X100.40 Y101.40 E3.885 F6000
G1 X100.00 Y101.00 F9000
G1 Z4.60 F600
G1 X130.00 Y101.00 E0.998 F6000
G1 X130.00 Y131.00 E1.996 F6000
G1 X100.00 Y131.00 E2.993 F6000
G1 X100.00 Y101.00 E3.991 F6000
G1 X100.40 Y101.40 F9000
G1 Z4.60 F600
G1 X129.60 Y101.40 E0.971 F6000
G1 X129.60 Y130.60 E1.942 F6000
G1 X100.40 Y130.60 E2.914 F6000
G1 X100.40 Y101.40 E3.885 F6000
G1 X100.00 Y101.00 F9000
G1 Z4.80 F600
G1 X130.00 Y101.00 E0.998 F6000
G1 X130.00 Y131.00 E1.996 F6000
G1 X100.00 Y131.00 E2.993 F6000
G1 X100.00 Y101.00 E3.991 F6000
G1 X100.40 Y101.40 F9000
G1 Z4.80 F600
G1 X129.60 Y101.40 E0.971 F6000
G1 X129.60 Y130.60 E1.942 F6000
G1 X100.40 Y130.60 E2.914 F6000
G1 X100.40 Y101.40 E3.885 F6000
G1 X100.00 Y101.00 F9000
G1 Z5.00 F600
G1 X130.00 Y101.00 E0.998 F6000
G1 X130.00 Y131.00 E1.996 F6000
G1 X100.00 Y131.00 E2.993 F6000
G1 X100.00 Y101.00 E3.991 F6000
G1 X100.40 Y101.40 F9000
G1 Z5.00 F600
G1 X129.60 Y101.40 E0.971 F6000
G1 X129.60 Y130.60 E1.942 F6000
G1 X100.40 Y130.60 E2.914 F6000
G1 X100.40 Y101.40 E3.885 F6000
G1 X100.00 Y101.00 F9000
G1 Z5.20 F600
G1 X130.00 Y101.00 E0.998 F6000
G1 X130.00 Y131.00 E1.996 F6000
G1 X100.00 Y131.00 E2.993 F6000
G1 X100.00 Y101.00 E3.991 F6000
G1 X100.40 Y101.40 F9000
G1 Z5.20 F600
G1 X129.60 Y101.40 E0.971 F6000
G1 X129.60 Y130.60 E1.942 F6000
G1 X100.40 Y130.60 E2.914 F6000
G1 X100.40 Y101.40 E3.885 F6000
G1 X100.00 Y101.00 F9000
G1 Z5.40 F600
G1 X130.00 Y101.00 E0.998 F6000
G1 X130.00 Y131.00 E1.996 F6000
G1 X100.00 Y131.00 E2.993 F6000
G1 X100.00 Y101.00 E3.991 F6000
G1 X100.40 Y101.40 F9000
G1 Z5.40 F600
G1 X129.60 Y101.40 E0.971 F6000
G1 X129.60 Y130.60 E1.942 F6000
G1 X100.40 Y130.60 E2.914 F6000
G1 X100.40 Y101.40 E3.885 F6000
G1 X100.00 Y101.00 F9000
G1 Z5.60 F600
G1 X130.00 Y101.00 E0.998 F6000
G1 X130.00 Y131.00 E1.996 F6000
G1 X100.00 Y131.00 E2.993 F6000
G1 X100.00 Y101.00 E3.991 F6000
G1 X100.40 Y101.40 F9000
G1 Z5.60 F600
G1 X129.60 Y101.40 E0.971 F6000
G1 X129.60 Y130.60 E1.942 F6000
G1 X100.40 Y130.60 E2.914 F6000
G1 X100.40 Y101.40 E3.885 F6000
G1 X100.00 Y101.00 F9000
G1 Z5.80 F600
G1 X130.00 Y101.00 E0.998 F6000
G1 X130.00 Y131.00 E1.996 F6000
G1 X100.00 Y131.00 E2.993 F6000
G1 X100.00 Y101.00 E3.991 F6000
G1 X100.40 Y101.40 F9000
G1 Z5.80 F600
G1 X129.60 Y101.40 E0.971 F6000
G1 X129.60 Y130.60 E1.942 F6000
G1 X100.40 Y130.60 E2.914 F6000
G1 X100.40 Y101.40 E3.885 F6000
G1 X100.00 Y101.00 F9000
G1 Z6.00 F600
G1 X130.00 Y101.00 E0.998 F6000
G1 X130.00 Y131.00 E1.996 F6000
G1 X100.00 Y131.00 E2.993 F6000
G1 X100.00 Y101.00 E3.991 F6000
G1 X100.40 Y101.40 F9000
G1 Z6.00 F600
G1 X129.60 Y101.40 E0.971 F6000
G1 X129.60 Y130.60 E1.942 F6000
G1 X100.40 Y130.60 E2.914 F6000
G1 X100.40 Y101.40 E3.885 F6000
;--- zone F30 ---
M593 F30
G1 X100.00 Y101.00 F9000
G1 Z6.20 F600
G1 X130.00 Y101.00 E0.998 F6000
G1 X130.00 Y131.00 E1.996 F6000
G1 X100.00 Y131.00 E2.993 F6000
G1 X100.00 Y101.00 E3.991 F6000
G1 X100.40 Y101.40 F9000
G1 Z6.20 F600
G1 X129.60 Y101.40 E0.971 F6000
G1 X129.60 Y130.60 E1.942 F6000
G1 X100.40 Y130.60 E2.914 F6000
G1 X100.40 Y101.40 E3.885 F6000
G1 X100.00 Y101.00 F9000
G1 Z6.40 F600
G1 X130.00 Y101.00 E0.998 F6000
G1 X130.00 Y131.00 E1.996 F6000
G1 X100.00 Y131.00 E2.993 F6000
G1 X100.00 Y101.00 E3.991 F6000
G1 X100.40 Y101.40 F9000
G1 Z6.40 F600
G1 X129.60 Y101.40 E0.971 F6000
G1 X129.60 Y130.60 E1.942 F6000
G1 X100.40 Y130.60 E2.914 F6000
G1 X100.40 Y101.40 E3.885 F6000
G1 X100.00 Y101.00 F9000
G1 Z6.60 F600
G1 X130.00 Y101.00 E0.998 F6000
G1 X130.00 Y131.00 E1.996 F6000
G1 X100.00 Y131.00 E2.993 F6000
G1 X100.00 Y101.00 E3.991 F6000
G1 X100.40 Y101.40 F9000
G1 Z6.60 F600
G1 X129.60 Y101.40 E0.971 F6000
G1 X129.60 Y130.60 E1.942 F6000
G1 X100.40 Y130.60 E2.914 F6000
G1 X100.40 Y101.40 E3.885 F6000
G1 X100.00 Y101.00 F9000
G1 Z6.80 F600
G1 X130.00 Y101.00 E0.998 F6000
G1 X130.00 Y131.00 E1.996 F6000
G1 X100.00 Y131.00 E2.993 F6000
G1 X100.00 Y101.00 E3.991 F6000
G1 X100.40 Y101.40 F9000
G1 Z6.80 F600
G1 X129.60 Y101.40 E0.971 F6000
G1 X129.60 Y130.60 E1.942 F6000
G1 X100.40 Y130.60 E2.914 F6000
G1 X100.40 Y101.40 E3.885 F6000
G1 X100.00 Y101.00 F9000
G1 Z7.00 F600
G1 X130.00 Y101.00 E0.998 F6000
G1 X130.00 Y131.00 E1.996 F6000
G1 X100.00 Y131.00 E2.993 F6000
G1 X100.00 Y101.00 E3.991 F6000
G1 X100.40 Y101.40 F9000
G1 Z7.00 F600
G1 X129.60 Y101.40 E0.971 F6000
G1 X129.60 Y130.60 E1.942 F6000
G1 X100.40 Y130.60 E2.914 F6000
G1 X100.40 Y101.40 E3.885 F6000
G1 X100.00 Y101.00 F9000
G1 Z7.20 F600
G1 X130.00 Y101.00 E0.998 F6000
G1 X130.00 Y131.00 E1.996 F6000
G1 X100.00 Y131.00 E2.993 F6000
G1 X100.00 Y101.00 E3.991 F6000
G1 X100.40 Y101.40 F9000
G1 Z7.20 F600
G1 X129.60 Y101.40 E0.971 F6000
G1 X129.60 Y130.60 E1.942 F6000
G1 X100.40 Y130.60 E2.914 F6000
G1 X100.40 Y101.40 E3.885 F6000
G1 X100.00 Y101.00 F9000
G1 Z7.40 F600
G1 X130.00 Y101.00 E0.998 F6000
G1 X130.00 Y131.00 E1.996 F6000
G1 X100.00 Y131.00 E2.993 F6000
G1 X100.00 Y101.00 E3.991 F6000
G1 X100.40 Y101.40 F9000
G1 Z7.40 F600
G1 X129.60 Y101.40 E0.971 F6000
G1 X129.60 Y130.60 E1.942 F6000
G1 X100.40 Y130.60 E2.914 F6000
G1 X100.40 Y101.40 E3.885 F6000
G1 X100.00 Y101.00 F9000
G1 Z7.60 F600
G1 X130.00 Y101.00 E0.998 F6000
G1 X130.00 Y131.00 E1.996 F6000
G1 X100.00 Y131.00 E2.993 F6000
G1 X100.00 Y101.00 E3.991 F6000
G1 X100.40 Y101.40 F9000
G1 Z7.60 F600
G1 X129.60 Y101.40 E0.971 F6000
G1 X129.60 Y130.60 E1.942 F6000
G1 X100.40 Y130.60 E2.914 F6000
G1 X100.40 Y101.40 E3.885 F6000
G1 X100.00 Y101.00 F9000
G1 Z7.80 F600
G1 X130.00 Y101.00 E0.998 F6000
G1 X130.00 Y131.00 E1.996 F6000
G1 X100.00 Y131.00 E2.993 F6000
G1 X100.00 Y101.00 E3.991 F6000
G1 X100.40 Y101.40 F9000
G1 Z7.80 F600
G1 X129.60 Y101.40 E0.971 F6000
G1 X129.60 Y130.60 E1.942 F6000
G1 X100.40 Y130.60 E2.914 F6000
G1 X100.40 Y101.40 E3.885 F6000
G1 X100.00 Y101.00 F9000
G1 Z8.00 F600
G1 X130.00 Y101.00 E0.998 F6000
G1 X130.00 Y131.00 E1.996 F6000
G1 X100.00 Y131.00 E2.993 F6000
G1 X100.00 Y101.00 E3.991 F6000
G1 X100.40 Y101.40 F9000
G1 Z8.00 F600
G1 X129.60 Y101.40 E0.971 F6000
G1 X129.60 Y130.60 E1.942 F6000
G1 X100.40 Y130.60 E2.914 F6000
G1 X100.40 Y101.40 E3.885 F6000
G1 X100.00 Y101.00 F9000
G1 Z8.20 F600
G1 X130.00 Y101.00 E0.998 F6000
G1 X130.00 Y131.00 E1.996 F6000
G1 X100.00 Y131.00 E2.993 F6000
G1 X100.00 Y101.00 E3.991 F6000
G1 X100.40 Y101.40 F9000
G1 Z8.20 F600
G1 X129.60 Y101.40 E0.971 F6000
G1 X129.60 Y130.60 E1.942 F6000
G1 X100.40 Y130.60 E2.914 F6000
G1 X100.40 Y101.40 E3.885 F6000
G1 X100.00 Y101.00 F9000
G1 Z8.40 F600
G1 X130.00 Y101.00 E0.998 F6000
G1 X130.00 Y131.00 E1.996 F6000
G1 X100.00 Y131.00 E2.993 F6000
G1 X100.00 Y101.00 E3.991 F6000
G1 X100.40 Y101.40 F9000
G1 Z8.40 F600
G1 X129.60 Y101.40 E0.971 F6000
G1 X129.60 Y130.60 E1.942 F6000
G1 X100.40 Y130.60 E2.914 F6000
G1 X100.40 Y101.40 E3.885 F6000
G1 X100.00 Y101.00 F9000
G1 Z8.60 F600
G1 X130.00 Y101.00 E0.998 F6000
G1 X130.00 Y131.00 E1.996 F6000
G1 X100.00 Y131.00 E2.993 F6000
G1 X100.00 Y101.00 E3.991 F6000
G1 X100.40 Y101.40 F9000
G1 Z8.60 F600
G1 X129.60 Y101.40 E0.971 F6000
G1 X129.60 Y130.60 E1.942 F6000
G1 X100.40 Y130.60 E2.914 F6000
G1 X100.40 Y101.40 E3.885 F6000
G1 X100.00 Y101.00 F9000
G1 Z8.80 F600
G1 X130.00 Y101.00 E0.998 F6000
G1 X130.00 Y131.00 E1.996 F6000
G1 X100.00 Y131.00 E2.993 F6000
G1 X100.00 Y101.00 E3.991 F6000
G1 X100.40 Y101.40 F9000
G1 Z8.80 F600
G1 X129.60 Y101.40 E0.971 F6000
G1 X129.60 Y130.60 E1.942 F6000
G1 X100.40 Y130.60 E2.914 F6000
G1 X100.40 Y101.40 E3.885 F6000
G1 X100.00 Y101.00 F9000
G1 Z9.00 F600
G1 X130.00 Y101.00 E0.998 F6000
G1 X130.00 Y131.00 E1.996 F6000
G1 X100.00 Y131.00 E2.993 F6000
G1 X100.00 Y101.00 E3.991 F6000
G1 X100.40 Y101.40 F9000
G1 Z9.00 F600
G1 X129.60 Y101.40 E0.971 F6000
G1 X129.60 Y130.60 E1.942 F6000
G1 X100.40 Y130.60 E2.914 F6000
G1 X100.40 Y101.40 E3.885 F6000
G1 X100.00 Y101.00 F9000
G1 Z9.20 F600
G1 X130.00 Y101.00 E0.998 F6000
G1 X130.00 Y131.00 E1.996 F6000
G1 X100.00 Y131.00 E2.993 F6000
G1 X100.00 Y101.00 E3.991 F6000
G1 X100.40 Y101.40 F9000
G1 Z9.20 F600
G1 X129.60 Y101.40 E0.971 F6000
G1 X129.60 Y130.60 E1.942 F6000
G1 X100.40 Y130.60 E2.914 F6000
G1 X100.40 Y101.40 E3.885 F6000
G1 X100.00 Y101.00 F9000
G1 Z9.40 F600
G1 X130.00 Y101.00 E0.998 F6000
G1 X130.00 Y131.00 E1.996 F6000
G1 X100.00 Y131.00 E2.993 F6000
G1 X100.00 Y101.00 E3.991 F6000
G1 X100.40 Y101.40 F9000
G1 Z9.40 F600
G1 X129.60 Y101.40 E0.971 F6000
G1 X129.60 Y130.60 E1.942 F6000
G1 X100.40 Y130.60 E2.914 F6000
G1 X100.40 Y101.40 E3.885 F6000
G1 X100.00 Y101.00 F9000
G1 Z9.60 F600
G1 X130.00 Y101.00 E0.998 F6000
G1 X130.00 Y131.00 E1.996 F6000
G1 X100.00 Y131.00 E2.993 F6000
G1 X100.00 Y101.00 E3.991 F6000
G1 X100.40 Y101.40 F9000
G1 Z9.60 F600
G1 X129.60 Y101.40 E0.971 F6000
G1 X129.60 Y130.60 E1.942 F6000
G1 X100.40 Y130.60 E2.914 F6000
G1 X100.40 Y101.40 E3.885 F6000
G1 X100.00 Y101.00 F9000
G1 Z9.80 F600
G1 X130.00 Y101.00 E0.998 F6000
G1 X130.00 Y131.00 E1.996 F6000
G1 X100.00 Y131.00 E2.993 F6000
G1 X100.00 Y101.00 E3.991 F6000
G1 X100.40 Y101.40 F9000
G1 Z9.80 F600
G1 X129.60 Y101.40 E0.971 F6000
G1 X129.60 Y130.60 E1.942 F6000
G1 X100.40 Y130.60 E2.914 F6000
G1 X100.40 Y101.40 E3.885 F6000
G1 X100.00 Y101.00 F9000
G1 Z10.00 F600
G1 X130.00 Y101.00 E0.998 F6000
G1 X130.00 Y131.00 E1.996 F6000
G1 X100.00 Y131.00 E2.993 F6000
G1 X100.00 Y101.00 E3.991 F6000
G1 X100.40 Y101.40 F9000
G1 Z10.00 F600
G1 X129.60 Y101.40 E0.971 F6000
G1 X129.60 Y130.60 E1.942 F6000
G1 X100.40 Y130.60 E2.914 F6000
G1 X100.40 Y101.40 E3.885 F6000
G1 X100.00 Y101.00 F9000
G1 Z10.20 F600
G1 X130.00 Y101.00 E0.998 F6000
G1 X130.00 Y131.00 E1.996 F6000
G1 X100.00 Y131.00 E2.993 F6000
G1 X100.00 Y101.00 E3.991 F6000
G1 X100.40 Y101.40 F9000
G1 Z10.20 F600
G1 X129.60 Y101.40 E0.971 F6000
G1 X129.60 Y130.60 E1.942 F6000
G1 X100.40 Y130.60 E2.914 F6000
G1 X100.40 Y101.40 E3.885 F6000
G1 X100.00 Y101.00 F9000
G1 Z10.40 F600
G1 X130.00 Y101.00 E0.998 F6000
G1 X130.00 Y131.00 E1.996 F6000
G1 X100.00 Y131.00 E2.993 F6000
G1 X100.00 Y101.00 E3.991 F6000
G1 X100.40 Y101.40 F9000
G1 Z10.40 F600
G1 X129.60 Y101.40 E0.971 F6000
G1 X129.60 Y130.60 E1.942 F6000
G1 X100.40 Y130.60 E2.914 F6000
G1 X100.40 Y101.40 E3.885 F6000
G1 X100.00 Y101.00 F9000
G1 Z10.60 F600
G1 X130.00 Y101.00 E0.998 F6000
G1 X130.00 Y131.00 E1.996 F6000
G1 X100.00 Y131.00 E2.993 F6000
G1 X100.00 Y101.00 E3.991 F6000
G1 X100.40 Y101.40 F9000
G1 Z10.60 F600
G1 X129.60 Y101.40 E0.971 F6000
G1 X129.60 Y130.60 E1.942 F6000
G1 X100.40 Y130.60 E2.914 F6000
G1 X100.40 Y101.40 E3.885 F6000
G1 X100.00 Y101.00 F9000
G1 Z10.80 F600
G1 X130.00 Y101.00 E0.998 F6000
G1 X130.00 Y131.00 E1.996 F6000
G1 X100.00 Y131.00 E2.993 F6000
G1 X100.00 Y101.00 E3.991 F6000
G1 X100.40 Y101.40 F9000
G1 Z10.80 F600
G1 X129.60 Y101.40 E0.971 F6000
G1 X129.60 Y130.60 E1.942 F6000
G1 X100.40 Y130.60 E2.914 F6000
G1 X100.40 Y101.40 E3.885 F6000
G1 X100.00 Y101.00 F9000
G1 Z11.00 F600
G1 X130.00 Y101.00 E0.998 F6000
G1 X130.00 Y131.00 E1.996 F6000
G1 X100.00 Y131.00 E2.993 F6000
G1 X100.00 Y101.00 E3.991 F6000
G1 X100.40 Y101.40 F9000
G1 Z11.00 F600
G1 X129.60 Y101.40 E0.971 F6000
G1 X129.60 Y130.60 E1.942 F6000
G1 X100.40 Y130.60 E2.914 F6000
G1 X100.40 Y101.40 E3.885 F6000
G1 X100.00 Y101.00 F9000
G1 Z11.20 F600
G1 X130.00 Y101.00 E0.998 F6000
G1 X130.00 Y131.00 E1.996 F6000
G1 X100.00 Y131.00 E2.993 F6000
G1 X100.00 Y101.00 E3.991 F6000
G1 X100.40 Y101.40 F9000
G1 Z11.20 F600
G1 X129.60 Y101.40 E0.971 F6000
G1 X129.60 Y130.60 E1.942 F6000
G1 X100.40 Y130.60 E2.914 F6000
G1 X100.40 Y101.40 E3.885 F6000
G1 X100.00 Y101.00 F9000
G1 Z11.40 F600
G1 X130.00 Y101.00 E0.998 F6000
G1 X130.00 Y131.00 E1.996 F6000
G1 X100.00 Y131.00 E2.993 F6000
G1 X100.00 Y101.00 E3.991 F6000
G1 X100.40 Y101.40 F9000
G1 Z11.40 F600
G1 X129.60 Y101.40 E0.971 F6000
G1 X129.60 Y130.60 E1.942 F6000
G1 X100.40 Y130.60 E2.914 F6000
G1 X100.40 Y101.40 E3.885 F6000
G1 X100.00 Y101.00 F9000
G1 Z11.60 F600
G1 X130.00 Y101.00 E0.998 F6000
G1 X130.00 Y131.00 E1.996 F6000
G1 X100.00 Y131.00 E2.993 F6000
G1 X100.00 Y101.00 E3.991 F6000
G1 X100.40 Y101.40 F9000
G1 Z11.60 F600
G1 X129.60 Y101.40 E0.971 F6000
G1 X129.60 Y130.60 E1.942 F6000
G1 X100.40 Y130.60 E2.914 F6000
G1 X100.40 Y101.40 E3.885 F6000
G1 X100.00 Y101.00 F9000
G1 Z11.80 F600
G1 X130.00 Y101.00 E0.998 F6000
G1 X130.00 Y131.00 E1.996 F6000
G1 X100.00 Y131.00 E2.993 F6000
G1 X100.00 Y101.00 E3.991 F6000
G1 X100.40 Y101.40 F9000
G1 Z11.80 F600
G1 X129.60 Y101.40 E0.971 F6000
G1 X129.60 Y130.60 E1.942 F6000
G1 X100.40 Y130.60 E2.914 F6000
G1 X100.40 Y101.40 E3.885 F6000
G1 X100.00 Y101.00 F9000
G1 Z12.00 F600
G1 X130.00 Y101.00 E0.998 F6000
G1 X130.00 Y131.00 E1.996 F6000
G1 X100.00 Y131.00 E2.993 F6000
G1 X100.00 Y101.00 E3.991 F6000
G1 X100.40 Y101.40 F9000
G1 Z12.00 F600
G1 X129.60 Y101.40 E0.971 F6000
G1 X129.60 Y130.60 E1.942 F6000
G1 X100.40 Y130.60 E2.914 F6000
G1 X100.40 Y101.40 E3.885 F6000
;--- zone F40 ---
M593 F40
G1 X100.00 Y101.00 F9000
G1 Z12.20 F600
G1 X130.00 Y101.00 E0.998 F6000
G1 X130.00 Y131.00 E1.996 F6000
G1 X100.00 Y131.00 E2.993 F6000
G1 X100.00 Y101.00 E3.991 F6000
G1 X100.40 Y101.40 F9000
G1 Z12.20 F600
G1 X129.60 Y101.40 E0.971 F6000
G1 X129.60 Y130.60 E1.942 F6000
G1 X100.40 Y130.60 E2.914 F6000
G1 X100.40 Y101.40 E3.885 F6000
G1 X100.00 Y101.00 F9000
G1 Z12.40 F600
G1 X130.00 Y101.00 E0.998 F6000
G1 X130.00 Y131.00 E1.996 F6000
G1 X100.00 Y131.00 E2.993 F6000
G1 X100.00 Y101.00 E3.991 F6000
G1 X100.40 Y101.40 F9000
G1 Z12.40 F600
G1 X129.60 Y101.40 E0.971 F6000
G1 X129.60 Y130.60 E1.942 F6000
G1 X100.40 Y130.60 E2.914 F6000
G1 X100.40 Y101.40 E3.885 F6000
G1 X100.00 Y101.00 F9000
G1 Z12.60 F600
G1 X130.00 Y101.00 E0.998 F6000
G1 X130.00 Y131.00 E1.996 F6000
G1 X100.00 Y131.00 E2.993 F6000
G1 X100.00 Y101.00 E3.991 F6000
G1 X100.40 Y101.40 F9000
G1 Z12.60 F600
G1 X129.60 Y101.40 E0.971 F6000
G1 X129.60 Y130.60 E1.942 F6000
G1 X100.40 Y130.60 E2.914 F6000
G1 X100.40 Y101.40 E3.885 F6000
G1 X100.00 Y101.00 F9000
G1 Z12.80 F600
G1 X130.00 Y101.00 E0.998 F6000
G1 X130.00 Y131.00 E1.996 F6000
G1 X100.00 Y131.00 E2.993 F6000
G1 X100.00 Y101.00 E3.991 F6000
G1 X100.40 Y101.40 F9000
G1 Z12.80 F600
G1 X129.60 Y101.40 E0.971 F6000
G1 X129.60 Y130.60 E1.942 F6000
G1 X100.40 Y130.60 E2.914 F6000
G1 X100.40 Y101.40 E3.885 F6000
G1 X100.00 Y101.00 F9000
G1 Z13.00 F600
G1 X130.00 Y101.00 E0.998 F6000
G1 X130.00 Y131.00 E1.996 F6000
G1 X100.00 Y131.00 E2.993 F6000
G1 X100.00 Y101.00 E3.991 F6000
G1 X100.40 Y101.40 F9000
G1 Z13.00 F600
G1 X129.60 Y101.40 E0.971 F6000
G1 X129.60 Y130.60 E1.942 F6000
G1 X100.40 Y130.60 E2.914 F6000
G1 X100.40 Y101.40 E3.885 F6000
G1 X100.00 Y101.00 F9000
G1 Z13.20 F600
G1 X130.00 Y101.00 E0.998 F6000
G1 X130.00 Y131.00 E1.996 F6000
G1 X100.00 Y131.00 E2.993 F6000
G1 X100.00 Y101.00 E3.991 F6000
G1 X100.40 Y101.40 F9000
G1 Z13.20 F600
G1 X129.60 Y101.40 E0.971 F6000
G1 X129.60 Y130.60 E1.942 F6000
G1 X100.40 Y130.60 E2.914 F6000
G1 X100.40 Y101.40 E3.885 F6000
G1 X100.00 Y101.00 F9000
G1 Z13.40 F600
G1 X130.00 Y101.00 E0.998 F6000
G1 X130.00 Y131.00 E1.996 F6000
G1 X100.00 Y131.00 E2.993 F6000
G1 X100.00 Y101.00 E3.991 F6000
G1 X100.40 Y101.40 F9000
G1 Z13.40 F600
G1 X129.60 Y101.40 E0.971 F6000
G1 X129.60 Y130.60 E1.942 F6000
G1 X100.40 Y130.60 E2.914 F6000
G1 X100.40 Y101.40 E3.885 F6000
G1 X100.00 Y101.00 F9000
G1 Z13.60 F600
G1 X130.00 Y101.00 E0.998 F6000
G1 X130.00 Y131.00 E1.996 F6000
G1 X100.00 Y131.00 E2.993 F6000
G1 X100.00 Y101.00 E3.991 F6000
G1 X100.40 Y101.40 F9000
G1 Z13.60 F600
G1 X129.60 Y101.40 E0.971 F6000
G1 X129.60 Y130.60 E1.942 F6000
G1 X100.40 Y130.60 E2.914 F6000
G1 X100.40 Y101.40 E3.885 F6000
G1 X100.00 Y101.00 F9000
G1 Z13.80 F600
G1 X130.00 Y101.00 E0.998 F6000
G1 X130.00 Y131.00 E1.996 F6000
G1 X100.00 Y131.00 E2.993 F6000
G1 X100.00 Y101.00 E3.991 F6000
G1 X100.40 Y101.40 F9000
G1 Z13.80 F600
G1 X129.60 Y101.40 E0.971 F6000
G1 X129.60 Y130.60 E1.942 F6000
G1 X100.40 Y130.60 E2.914 F6000
G1 X100.40 Y101.40 E3.885 F6000
G1 X100.00 Y101.00 F9000
G1 Z14.00 F600
G1 X130.00 Y101.00 E0.998 F6000
G1 X130.00 Y131.00 E1.996 F6000
G1 X100.00 Y131.00 E2.993 F6000
G1 X100.00 Y101.00 E3.991 F6000
G1 X100.40 Y101.40 F9000
G1 Z14.00 F600
G1 X129.60 Y101.40 E0.971 F6000
G1 X129.60 Y130.60 E1.942 F6000
G1 X100.40 Y130.60 E2.914 F6000
G1 X100.40 Y101.40 E3.885 F6000
G1 X100.00 Y101.00 F9000
G1 Z14.20 F600
G1 X130.00 Y101.00 E0.998 F6000
G1 X130.00 Y131.00 E1.996 F6000
G1 X100.00 Y131.00 E2.993 F6000
G1 X100.00 Y101.00 E3.991 F6000
G1 X100.40 Y101.40 F9000
G1 Z14.20 F600
G1 X129.60 Y101.40 E0.971 F6000
G1 X129.60 Y130.60 E1.942 F6000
G1 X100.40 Y130.60 E2.914 F6000
G1 X100.40 Y101.40 E3.885 F6000
G1 X100.00 Y101.00 F9000
G1 Z14.40 F600
G1 X130.00 Y101.00 E0.998 F6000
G1 X130.00 Y131.00 E1.996 F6000
G1 X100.00 Y131.00 E2.993 F6000
G1 X100.00 Y101.00 E3.991 F6000
G1 X100.40 Y101.40 F9000
G1 Z14.40 F600
G1 X129.60 Y101.40 E0.971 F6000
G1 X129.60 Y130.60 E1.942 F6000
G1 X100.40 Y130.60 E2.914 F6000
G1 X100.40 Y101.40 E3.885 F6000
G1 X100.00 Y101.00 F9000
G1 Z14.60 F600
G1 X130.00 Y101.00 E0.998 F6000
G1 X130.00 Y131.00 E1.996 F6000
G1 X100.00 Y131.00 E2.993 F6000
G1 X100.00 Y101.00 E3.991 F6000
G1 X100.40 Y101.40 F9000
G1 Z14.60 F600
G1 X129.60 Y101.40 E0.971 F6000
G1 X129.60 Y130.60 E1.942 F6000
G1 X100.40 Y130.60 E2.914 F6000
G1 X100.40 Y101.40 E3.885 F6000
G1 X100.00 Y101.00 F9000
G1 Z14.80 F600
G1 X130.00 Y101.00 E0.998 F6000
G1 X130.00 Y131.00 E1.996 F6000
G1 X100.00 Y131.00 E2.993 F6000
G1 X100.00 Y101.00 E3.991 F6000
G1 X100.40 Y101.40 F9000
G1 Z14.80 F600
G1 X129.60 Y101.40 E0.971 F6000
G1 X129.60 Y130.60 E1.942 F6000
G1 X100.40 Y130.60 E2.914 F6000
G1 X100.40 Y101.40 E3.885 F6000
G1 X100.00 Y101.00 F9000
G1 Z15.00 F600
G1 X130.00 Y101.00 E0.998 F6000
G1 X130.00 Y131.00 E1.996 F6000
G1 X100.00 Y131.00 E2.993 F6000
G1 X100.00 Y101.00 E3.991 F6000
G1 X100.40 Y101.40 F9000
G1 Z15.00 F600
G1 X129.60 Y101.40 E0.971 F6000
G1 X129.60 Y130.60 E1.942 F6000
G1 X100.40 Y130.60 E2.914 F6000
G1 X100.40 Y101.40 E3.885 F6000
G1 X100.00 Y101.00 F9000
G1 Z15.20 F600
G1 X130.00 Y101.00 E0.998 F6000
G1 X130.00 Y131.00 E1.996 F6000
G1 X100.00 Y131.00 E2.993 F6000
G1 X100.00 Y101.00 E3.991 F6000
G1 X100.40 Y101.40 F9000
G1 Z15.20 F600
G1 X129.60 Y101.40 E0.971 F6000
G1 X129.60 Y130.60 E1.942 F6000
G1 X100.40 Y130.60 E2.914 F6000
G1 X100.40 Y101.40 E3.885 F6000
G1 X100.00 Y101.00 F9000
G1 Z15.40 F600
G1 X130.00 Y101.00 E0.998 F6000
G1 X130.00 Y131.00 E1.996 F6000
G1 X100.00 Y131.00 E2.993 F6000
G1 X100.00 Y101.00 E3.991 F6000
G1 X100.40 Y101.40 F9000
G1 Z15.40 F600
G1 X129.60 Y101.40 E0.971 F6000
G1 X129.60 Y130.60 E1.942 F6000
G1 X100.40 Y130.60 E2.914 F6000
G1 X100.40 Y101.40 E3.885 F6000
G1 X100.00 Y101.00 F9000
G1 Z15.60 F600
G1 X130.00 Y101.00 E0.998 F6000
G1 X130.00 Y131.00 E1.996 F6000
G1 X100.00 Y131.00 E2.993 F6000
G1 X100.00 Y101.00 E3.991 F6000
G1 X100.40 Y101.40 F9000
G1 Z15.60 F600
G1 X129.60 Y101.40 E0.971 F6000
G1 X129.60 Y130.60 E1.942 F6000
G1 X100.40 Y130.60 E2.914 F6000
G1 X100.40 Y101.40 E3.885 F6000
G1 X100.00 Y101.00 F9000
G1 Z15.80 F600
G1 X130.00 Y101.00 E0.998 F6000
G1 X130.00 Y131.00 E1.996 F6000
G1 X100.00 Y131.00 E2.993 F6000
G1 X100.00 Y101.00 E3.991 F6000
G1 X100.40 Y101.40 F9000
G1 Z15.80 F600
G1 X129.60 Y101.40 E0.971 F6000
G1 X129.60 Y130.60 E1.942 F6000
G1 X100.40 Y130.60 E2.914 F6000
G1 X100.40 Y101.40 E3.885 F6000
G1 X100.00 Y101.00 F9000
G1 Z16.00 F600
G1 X130.00 Y101.00 E0.998 F6000
G1 X130.00 Y131.00 E1.996 F6000
G1 X100.00 Y131.00 E2.993 F6000
G1 X100.00 Y101.00 E3.991 F6000
G1 X100.40 Y101.40 F9000
G1 Z16.00 F600
G1 X129.60 Y101.40 E0.971 F6000
G1 X129.60 Y130.60 E1.942 F6000
G1 X100.40 Y130.60 E2.914 F6000
G1 X100.40 Y101.40 E3.885 F6000
G1 X100.00 Y101.00 F9000
G1 Z16.20 F600
G1 X130.00 Y101.00 E0.998 F6000
G1 X130.00 Y131.00 E1.996 F6000
G1 X100.00 Y131.00 E2.993 F6000
G1 X100.00 Y101.00 E3.991 F6000
G1 X100.40 Y101.40 F9000
G1 Z16.20 F600
G1 X129.60 Y101.40 E0.971 F6000
G1 X129.60 Y130.60 E1.942 F6000
G1 X100.40 Y130.60 E2.914 F6000
G1 X100.40 Y101.40 E3.885 F6000
G1 X100.00 Y101.00 F9000
G1 Z16.40 F600
G1 X130.00 Y101.00 E0.998 F6000
G1 X130.00 Y131.00 E1.996 F6000
G1 X100.00 Y131.00 E2.993 F6000
G1 X100.00 Y101.00 E3.991 F6000
G1 X100.40 Y101.40 F9000
G1 Z16.40 F600
G1 X129.60 Y101.40 E0.971 F6000
G1 X129.60 Y130.60 E1.942 F6000
G1 X100.40 Y130.60 E2.914 F6000
G1 X100.40 Y101.40 E3.885 F6000
G1 X100.00 Y101.00 F9000
G1 Z16.60 F600
G1 X130.00 Y101.00 E0.998 F6000
G1 X130.00 Y131.00 E1.996 F6000
G1 X100.00 Y131.00 E2.993 F6000
G1 X100.00 Y101.00 E3.991 F6000
G1 X100.40 Y101.40 F9000
G1 Z16.60 F600
G1 X129.60 Y101.40 E0.971 F6000
G1 X129.60 Y130.60 E1.942 F6000
G1 X100.40 Y130.60 E2.914 F6000
G1 X100.40 Y101.40 E3.885 F6000
G1 X100.00 Y101.00 F9000
G1 Z16.80 F600
G1 X130.00 Y101.00 E0.998 F6000
G1 X130.00 Y131.00 E1.996 F6000
G1 X100.00 Y131.00 E2.993 F6000
G1 X100.00 Y101.00 E3.991 F6000
G1 X100.40 Y101.40 F9000
G1 Z16.80 F600
G1 X129.60 Y101.40 E0.971 F6000
G1 X129.60 Y130.60 E1.942 F6000
G1 X100.40 Y130.60 E2.914 F6000
G1 X100.40 Y101.40 E3.885 F6000
G1 X100.00 Y101.00 F9000
G1 Z17.00 F600
G1 X130.00 Y101.00 E0.998 F6000
G1 X130.00 Y131.00 E1.996 F6000
G1 X100.00 Y131.00 E2.993 F6000
G1 X100.00 Y101.00 E3.991 F6000
G1 X100.40 Y101.40 F9000
G1 Z17.00 F600
G1 X129.60 Y101.40 E0.971 F6000
G1 X129.60 Y130.60 E1.942 F6000
G1 X100.40 Y130.60 E2.914 F6000
G1 X100.40 Y101.40 E3.885 F6000
G1 X100.00 Y101.00 F9000
G1 Z17.20 F600
G1 X130.00 Y101.00 E0.998 F6000
G1 X130.00 Y131.00 E1.996 F6000
G1 X100.00 Y131.00 E2.993 F6000
G1 X100.00 Y101.00 E3.991 F6000
G1 X100.40 Y101.40 F9000
G1 Z17.20 F600
G1 X129.60 Y101.40 E0.971 F6000
G1 X129.60 Y130.60 E1.942 F6000
G1 X100.40 Y130.60 E2.914 F6000
G1 X100.40 Y101.40 E3.885 F6000
G1 X100.00 Y101.00 F9000
G1 Z17.40 F600
G1 X130.00 Y101.00 E0.998 F6000
G1 X130.00 Y131.00 E1.996 F6000
G1 X100.00 Y131.00 E2.993 F6000
G1 X100.00 Y101.00 E3.991 F6000
G1 X100.40 Y101.40 F9000
G1 Z17.40 F600
G1 X129.60 Y101.40 E0.971 F6000
G1 X129.60 Y130.60 E1.942 F6000
G1 X100.40 Y130.60 E2.914 F6000
G1 X100.40 Y101.40 E3.885 F6000
G1 X100.00 Y101.00 F9000
G1 Z17.60 F600
G1 X130.00 Y101.00 E0.998 F6000
G1 X130.00 Y131.00 E1.996 F6000
G1 X100.00 Y131.00 E2.993 F6000
G1 X100.00 Y101.00 E3.991 F6000
G1 X100.40 Y101.40 F9000
G1 Z17.60 F600
G1 X129.60 Y101.40 E0.971 F6000
G1 X129.60 Y130.60 E1.942 F6000
G1 X100.40 Y130.60 E2.914 F6000
G1 X100.40 Y101.40 E3.885 F6000
G1 X100.00 Y101.00 F9000
G1 Z17.80 F600
G1 X130.00 Y101.00 E0.998 F6000
G1 X130.00 Y131.00 E1.996 F6000
G1 X100.00 Y131.00 E2.993 F6000
G1 X100.00 Y101.00 E3.991 F6000
G1 X100.40 Y101.40 F9000
G1 Z17.80 F600
G1 X129.60 Y101.40 E0.971 F6000
G1 X129.60 Y130.60 E1.942 F6000
G1 X100.40 Y130.60 E2.914 F6000
G1 X100.40 Y101.40 E3.885 F6000
G1 X100.00 Y101.00 F9000
G1 Z18.00 F600
G1 X130.00 Y101.00 E0.998 F6000
G1 X130.00 Y131.00 E1.996 F6000
G1 X100.00 Y131.00 E2.993 F6000
G1 X100.00 Y101.00 E3.991 F6000
G1 X100.40 Y101.40 F9000
G1 Z18.00 F600
G1 X129.60 Y101.40 E0.971 F6000
G1 X129.60 Y130.60 E1.942 F6000
G1 X100.40 Y130.60 E2.914 F6000
G1 X100.40 Y101.40 E3.885 F6000
;--- zone F50 ---
M593 F50
G1 X100.00 Y101.00 F9000
G1 Z18.20 F600
G1 X130.00 Y101.00 E0.998 F6000
G1 X130.00 Y131.00 E1.996 F6000
G1 X100.00 Y131.00 E2.993 F6000
G1 X100.00 Y101.00 E3.991 F6000
G1 X100.40 Y101.40 F9000
G1 Z18.20 F600
G1 X129.60 Y101.40 E0.971 F6000
G1 X129.60 Y130.60 E1.942 F6000
G1 X100.40 Y130.60 E2.914 F6000
G1 X100.40 Y101.40 E3.885 F6000
G1 X100.00 Y101.00 F9000
G1 Z18.40 F600
G1 X130.00 Y101.00 E0.998 F6000
G1 X130.00 Y131.00 E1.996 F6000
G1 X100.00 Y131.00 E2.993 F6000
G1 X100.00 Y101.00 E3.991 F6000
G1 X100.40 Y101.40 F9000
G1 Z18.40 F600
G1 X129.60 Y101.40 E0.971 F6000
G1 X129.60 Y130.60 E1.942 F6000
G1 X100.40 Y130.60 E2.914 F6000
G1 X100.40 Y101.40 E3.885 F6000
G1 X100.00 Y101.00 F9000
G1 Z18.60 F600
G1 X130.00 Y101.00 E0.998 F6000
G1 X130.00 Y131.00 E1.996 F6000
G1 X100.00 Y131.00 E2.993 F6000
G1 X100.00 Y101.00 E3.991 F6000
G1 X100.40 Y101.40 F9000
G1 Z18.60 F600
G1 X129.60 Y101.40 E0.971 F6000
G1 X129.60 Y130.60 E1.942 F6000
G1 X100.40 Y130.60 E2.914 F6000
G1 X100.40 Y101.40 E3.885 F6000
G1 X100.00 Y101.00 F9000
G1 Z18.80 F600
G1 X130.00 Y101.00 E0.998 F6000
G1 X130.00 Y131.00 E1.996 F6000
G1 X100.00 Y131.00 E2.993 F6000
G1 X100.00 Y101.00 E3.991 F6000
G1 X100.40 Y101.40 F9000
G1 Z18.80 F600
G1 X129.60 Y101.40 E0.971 F6000
G1 X129.60 Y130.60 E1.942 F6000
G1 X100.40 Y130.60 E2.914 F6000
G1 X100.40 Y101.40 E3.885 F6000
G1 X100.00 Y101.00 F9000
G1 Z19.00 F600
G1 X130.00 Y101.00 E0.998 F6000
G1 X130.00 Y131.00 E1.996 F6000
G1 X100.00 Y131.00 E2.993 F6000
G1 X100.00 Y101.00 E3.991 F6000
G1 X100.40 Y101.40 F9000
G1 Z19.00 F600
G1 X129.60 Y101.40 E0.971 F6000
G1 X129.60 Y130.60 E1.942 F6000
G1 X100.40 Y130.60 E2.914 F6000
G1 X100.40 Y101.40 E3.885 F6000
G1 X100.00 Y101.00 F9000
G1 Z19.20 F600
G1 X130.00 Y101.00 E0.998 F6000
G1 X130.00 Y131.00 E1.996 F6000
G1 X100.00 Y131.00 E2.993 F6000
G1 X100.00 Y101.00 E3.991 F6000
G1 X100.40 Y101.40 F9000
G1 Z19.20 F600
G1 X129.60 Y101.40 E0.971 F6000
G1 X129.60 Y130.60 E1.942 F6000
G1 X100.40 Y130.60 E2.914 F6000
G1 X100.40 Y101.40 E3.885 F6000
G1 X100.00 Y101.00 F9000
G1 Z19.40 F600
G1 X130.00 Y101.00 E0.998 F6000
G1 X130.00 Y131.00 E1.996 F6000
G1 X100.00 Y131.00 E2.993 F6000
G1 X100.00 Y101.00 E3.991 F6000
G1 X100.40 Y101.40 F9000
G1 Z19.40 F600
G1 X129.60 Y101.40 E0.971 F6000
G1 X129.60 Y130.60 E1.942 F6000
G1 X100.40 Y130.60 E2.914 F6000
G1 X100.40 Y101.40 E3.885 F6000
G1 X100.00 Y101.00 F9000
G1 Z19.60 F600
G1 X130.00 Y101.00 E0.998 F6000
G1 X130.00 Y131.00 E1.996 F6000
G1 X100.00 Y131.00 E2.993 F6000
G1 X100.00 Y101.00 E3.991 F6000
G1 X100.40 Y101.40 F9000
G1 Z19.60 F600
G1 X129.60 Y101.40 E0.971 F6000
G1 X129.60 Y130.60 E1.942 F6000
G1 X100.40 Y130.60 E2.914 F6000
G1 X100.40 Y101.40 E3.885 F6000
G1 X100.00 Y101.00 F9000
G1 Z19.80 F600
G1 X130.00 Y101.00 E0.998 F6000
G1 X130.00 Y131.00 E1.996 F6000
G1 X100.00 Y131.00 E2.993 F6000
G1 X100.00 Y101.00 E3.991 F6000
G1 X100.40 Y101.40 F9000
G1 Z19.80 F600
G1 X129.60 Y101.40 E0.971 F6000
G1 X129.60 Y130.60 E1.942 F6000
G1 X100.40 Y130.60 E2.914 F6000
G1 X100.40 Y101.40 E3.885 F6000
G1 X100.00 Y101.00 F9000
G1 Z20.00 F600
G1 X130.00 Y101.00 E0.998 F6000
G1 X130.00 Y131.00 E1.996 F6000
G1 X100.00 Y131.00 E2.993 F6000
G1 X100.00 Y101.00 E3.991 F6000
G1 X100.40 Y101.40 F9000
G1 Z20.00 F600
G1 X129.60 Y101.40 E0.971 F6000
G1 X129.60 Y130.60 E1.942 F6000
G1 X100.40 Y130.60 E2.914 F6000
G1 X100.40 Y101.40 E3.885 F6000
G1 X100.00 Y101.00 F9000
G1 Z20.20 F600
G1 X130.00 Y101.00 E0.998 F6000
G1 X130.00 Y131.00 E1.996 F6000
G1 X100.00 Y131.00 E2.993 F6000
G1 X100.00 Y101.00 E3.991 F6000
G1 X100.40 Y101.40 F9000
G1 Z20.20 F600
G1 X129.60 Y101.40 E0.971 F6000
G1 X129.60 Y130.60 E1.942 F6000
G1 X100.40 Y130.60 E2.914 F6000
G1 X100.40 Y101.40 E3.885 F6000
G1 X100.00 Y101.00 F9000
G1 Z20.40 F600
G1 X130.00 Y101.00 E0.998 F6000
G1 X130.00 Y131.00 E1.996 F6000
G1 X100.00 Y131.00 E2.993 F6000
G1 X100.00 Y101.00 E3.991 F6000
G1 X100.40 Y101.40 F9000
G1 Z20.40 F600
G1 X129.60 Y101.40 E0.971 F6000
G1 X129.60 Y130.60 E1.942 F6000
G1 X100.40 Y130.60 E2.914 F6000
G1 X100.40 Y101.40 E3.885 F6000
G1 X100.00 Y101.00 F9000
G1 Z20.60 F600
G1 X130.00 Y101.00 E0.998 F6000
G1 X130.00 Y131.00 E1.996 F6000
G1 X100.00 Y131.00 E2.993 F6000
G1 X100.00 Y101.00 E3.991 F6000
G1 X100.40 Y101.40 F9000
G1 Z20.60 F600
G1 X129.60 Y101.40 E0.971 F6000
G1 X129.60 Y130.60 E1.942 F6000
G1 X100.40 Y130.60 E2.914 F6000
G1 X100.40 Y101.40 E3.885 F6000
G1 X100.00 Y101.00 F9000
G1 Z20.80 F600
G1 X130.00 Y101.00 E0.998 F6000
G1 X130.00 Y131.00 E1.996 F6000
G1 X100.00 Y131.00 E2.993 F6000
G1 X100.00 Y101.00 E3.991 F6000
G1 X100.40 Y101.40 F9000
G1 Z20.80 F600
G1 X129.60 Y101.40 E0.971 F6000
G1 X129.60 Y130.60 E1.942 F6000
G1 X100.40 Y130.60 E2.914 F6000
G1 X100.40 Y101.40 E3.885 F6000
G1 X100.00 Y101.00 F9000
G1 Z21.00 F600
G1 X130.00 Y101.00 E0.998 F6000
G1 X130.00 Y131.00 E1.996 F6000
G1 X100.00 Y131.00 E2.993 F6000
G1 X100.00 Y101.00 E3.991 F6000
G1 X100.40 Y101.40 F9000
G1 Z21.00 F600
G1 X129.60 Y101.40 E0.971 F6000
G1 X129.60 Y130.60 E1.942 F6000
G1 X100.40 Y130.60 E2.914 F6000
G1 X100.40 Y101.40 E3.885 F6000
G1 X100.00 Y101.00 F9000
G1 Z21.20 F600
G1 X130.00 Y101.00 E0.998 F6000
G1 X130.00 Y131.00 E1.996 F6000
G1 X100.00 Y131.00 E2.993 F6000
G1 X100.00 Y101.00 E3.991 F6000
G1 X100.40 Y101.40 F9000
G1 Z21.20 F600
G1 X129.60 Y101.40 E0.971 F6000
G1 X129.60 Y130.60 E1.942 F6000
G1 X100.40 Y130.60 E2.914 F6000
G1 X100.40 Y101.40 E3.885 F6000
G1 X100.00 Y101.00 F9000
G1 Z21.40 F600
G1 X130.00 Y101.00 E0.998 F6000
G1 X130.00 Y131.00 E1.996 F6000
G1 X100.00 Y131.00 E2.993 F6000
G1 X100.00 Y101.00 E3.991 F6000
G1 X100.40 Y101.40 F9000
G1 Z21.40 F600
G1 X129.60 Y101.40 E0.971 F6000
G1 X129.60 Y130.60 E1.942 F6000
G1 X100.40 Y130.60 E2.914 F6000
G1 X100.40 Y101.40 E3.885 F6000
G1 X100.00 Y101.00 F9000
G1 Z21.60 F600
G1 X130.00 Y101.00 E0.998 F6000
G1 X130.00 Y131.00 E1.996 F6000
G1 X100.00 Y131.00 E2.993 F6000
G1 X100.00 Y101.00 E3.991 F6000
G1 X100.40 Y101.40 F9000
G1 Z21.60 F600
G1 X129.60 Y101.40 E0.971 F6000
G1 X129.60 Y130.60 E1.942 F6000
G1 X100.40 Y130.60 E2.914 F6000
G1 X100.40 Y101.40 E3.885 F6000
G1 X100.00 Y101.00 F9000
G1 Z21.80 F600
G1 X130.00 Y101.00 E0.998 F6000
G1 X130.00 Y131.00 E1.996 F6000
G1 X100.00 Y131.00 E2.993 F6000
G1 X100.00 Y101.00 E3.991 F6000
G1 X100.40 Y101.40 F9000
G1 Z21.80 F600
G1 X129.60 Y101.40 E0.971 F6000
G1 X129.60 Y130.60 E1.942 F6000
G1 X100.40 Y130.60 E2.914 F6000
G1 X100.40 Y101.40 E3.885 F6000
G1 X100.00 Y101.00 F9000
G1 Z22.00 F600
G1 X130.00 Y101.00 E0.998 F6000
G1 X130.00 Y131.00 E1.996 F6000
G1 X100.00 Y131.00 E2.993 F6000
G1 X100.00 Y101.00 E3.991 F6000
G1 X100.40 Y101.40 F9000
G1 Z22.00 F600
G1 X129.60 Y101.40 E0.971 F6000
G1 X129.60 Y130.60 E1.942 F6000
G1 X100.40 Y130.60 E2.914 F6000
G1 X100.40 Y101.40 E3.885 F6000
G1 X100.00 Y101.00 F9000
G1 Z22.20 F600
G1 X130.00 Y101.00 E0.998 F6000
G1 X130.00 Y131.00 E1.996 F6000
G1 X100.00 Y131.00 E2.993 F6000
G1 X100.00 Y101.00 E3.991 F6000
G1 X100.40 Y101.40 F9000
G1 Z22.20 F600
G1 X129.60 Y101.40 E0.971 F6000
G1 X129.60 Y130.60 E1.942 F6000
G1 X100.40 Y130.60 E2.914 F6000
G1 X100.40 Y101.40 E3.885 F6000
G1 X100.00 Y101.00 F9000
G1 Z22.40 F600
G1 X130.00 Y101.00 E0.998 F6000
G1 X130.00 Y131.00 E1.996 F6000
G1 X100.00 Y131.00 E2.993 F6000
G1 X100.00 Y101.00 E3.991 F6000
G1 X100.40 Y101.40 F9000
G1 Z22.40 F600
G1 X129.60 Y101.40 E0.971 F6000
G1 X129.60 Y130.60 E1.942 F6000
G1 X100.40 Y130.60 E2.914 F6000
G1 X100.40 Y101.40 E3.885 F6000
G1 X100.00 Y101.00 F9000
G1 Z22.60 F600
G1 X130.00 Y101.00 E0.998 F6000
G1 X130.00 Y131.00 E1.996 F6000
G1 X100.00 Y131.00 E2.993 F6000
G1 X100.00 Y101.00 E3.991 F6000
G1 X100.40 Y101.40 F9000
G1 Z22.60 F600
G1 X129.60 Y101.40 E0.971 F6000
G1 X129.60 Y130.60 E1.942 F6000
G1 X100.40 Y130.60 E2.914 F6000
G1 X100.40 Y101.40 E3.885 F6000
G1 X100.00 Y101.00 F9000
G1 Z22.80 F600
G1 X130.00 Y101.00 E0.998 F6000
G1 X130.00 Y131.00 E1.996 F6000
G1 X100.00 Y131.00 E2.993 F6000
G1 X100.00 Y101.00 E3.991 F6000
G1 X100.40 Y101.40 F9000
G1 Z22.80 F600
G1 X129.60 Y101.40 E0.971 F6000
G1 X129.60 Y130.60 E1.942 F6000
G1 X100.40 Y130.60 E2.914 F6000
G1 X100.40 Y101.40 E3.885 F6000
G1 X100.00 Y101.00 F9000
G1 Z23.00 F600
G1 X130.00 Y101.00 E0.998 F6000
G1 X130.00 Y131.00 E1.996 F6000
G1 X100.00 Y131.00 E2.993 F6000
G1 X100.00 Y101.00 E3.991 F6000
G1 X100.40 Y101.40 F9000
G1 Z23.00 F600
G1 X129.60 Y101.40 E0.971 F6000
G1 X129.60 Y130.60 E1.942 F6000
G1 X100.40 Y130.60 E2.914 F6000
G1 X100.40 Y101.40 E3.885 F6000
G1 X100.00 Y101.00 F9000
G1 Z23.20 F600
G1 X130.00 Y101.00 E0.998 F6000
G1 X130.00 Y131.00 E1.996 F6000
G1 X100.00 Y131.00 E2.993 F6000
G1 X100.00 Y101.00 E3.991 F6000
G1 X100.40 Y101.40 F9000
G1 Z23.20 F600
G1 X129.60 Y101.40 E0.971 F6000
G1 X129.60 Y130.60 E1.942 F6000
G1 X100.40 Y130.60 E2.914 F6000
G1 X100.40 Y101.40 E3.885 F6000
G1 X100.00 Y101.00 F9000
G1 Z23.40 F600
G1 X130.00 Y101.00 E0.998 F6000
G1 X130.00 Y131.00 E1.996 F6000
G1 X100.00 Y131.00 E2.993 F6000
G1 X100.00 Y101.00 E3.991 F6000
G1 X100.40 Y101.40 F9000
G1 Z23.40 F600
G1 X129.60 Y101.40 E0.971 F6000
G1 X129.60 Y130.60 E1.942 F6000
G1 X100.40 Y130.60 E2.914 F6000
G1 X100.40 Y101.40 E3.885 F6000
G1 X100.00 Y101.00 F9000
G1 Z23.60 F600
G1 X130.00 Y101.00 E0.998 F6000
G1 X130.00 Y131.00 E1.996 F6000
G1 X100.00 Y131.00 E2.993 F6000
G1 X100.00 Y101.00 E3.991 F6000
G1 X100.40 Y101.40 F9000
G1 Z23.60 F600
G1 X129.60 Y101.40 E0.971 F6000
G1 X129.60 Y130.60 E1.942 F6000
G1 X100.40 Y130.60 E2.914 F6000
G1 X100.40 Y101.40 E3.885 F6000
G1 X100.00 Y101.00 F9000
G1 Z23.80 F600
G1 X130.00 Y101.00 E0.998 F6000
G1 X130.00 Y131.00 E1.996 F6000
G1 X100.00 Y131.00 E2.993 F6000
G1 X100.00 Y101.00 E3.991 F6000
G1 X100.40 Y101.40 F9000
G1 Z23.80 F600
G1 X129.60 Y101.40 E0.971 F6000
G1 X129.60 Y130.60 E1.942 F6000
G1 X100.40 Y130.60 E2.914 F6000
G1 X100.40 Y101.40 E3.885 F6000
G1 X100.00 Y101.00 F9000
G1 Z24.00 F600
G1 X130.00 Y101.00 E0.998 F6000
G1 X130.00 Y131.00 E1.996 F6000
G1 X100.00 Y131.00 E2.993 F6000
G1 X100.00 Y101.00 E3.991 F6000
G1 X100.40 Y101.40 F9000
G1 Z24.00 F600
G1 X129.60 Y101.40 E0.971 F6000
G1 X129.60 Y130.60 E1.942 F6000
G1 X100.40 Y130.60 E2.914 F6000
G1 X100.40 Y101.40 E3.885 F6000
M107
M104 S0
M140 S0
G1 Z29.20 F600
G1 X195.00 Y46.00 F9000
M84
END
